{"type":"FeatureCollection","features":[{"type":"Feature","geometry":{"type":"Point","coordinates":[-105.65505,35.83425]},"properties":{"name":"Jacks Creek Trailhead"}},{"type":"Feature","geometry":{"type":"Point","coordinates":[-105.67202,36.04402]},"properties":{"name":"Trampas"}},{"type":"Feature","geometry":{"type":"Point","coordinates":[-105.80876,35.78913]},"properties":{"name":"Norski Trailhead"}},{"type":"Feature","geometry":{"type":"Point","coordinates":[-105.83456,35.74634]},"properties":{"name":"Bear Wallow"}},{"type":"Feature","geometry":{"type":"Point","coordinates":[-105.83979,35.72774]},"properties":{"name":"Black Canyon Recreation Site (New)"}},{"type":"Feature","geometry":{"type":"Point","coordinates":[-105.81251,35.98837]},"properties":{"name":"Borrego"}},{"type":"Feature","geometry":{"type":"Point","coordinates":[-105.50101,36.05701]},"properties":{"name":"Serpent Lake Th"}},{"type":"Feature","geometry":{"type":"Point","coordinates":[-105.69785,35.76783]},"properties":{"name":"Holy Ghost Trailhead"}},{"type":"Feature","geometry":{"type":"Point","coordinates":[-105.50894,35.72395]},"properties":{"name":"Burro Basin Trailhead"}},{"type":"Feature","geometry":{"type":"Point","coordinates":[-105.80491,35.7956]},"properties":{"name":"Winsor Trailhead #254"}},{"type":"Feature","geometry":{"type":"Point","coordinates":[-105.67408,36.03278]},"properties":{"name":"San Leonardo Lakes Trail Head"}},{"type":"Feature","geometry":{"type":"Point","coordinates":[-105.65951,35.81207]},"properties":{"name":"Winsor Ridge Trailhead"}},{"type":"Feature","geometry":{"type":"Point","coordinates":[-105.60902,36.08502]},"properties":{"name":"Santa Barbara Th"}},{"type":"Feature","geometry":{"type":"Point","coordinates":[-105.67872,35.8161]},"properties":{"name":"Winsor Creek Trailhead"}},{"type":"Feature","geometry":{"type":"Point","coordinates":[-105.665,35.83144]},"properties":{"name":"Panchuela Trailhead"}},{"type":"Feature","geometry":{"type":"Point","coordinates":[-105.81074,35.77718]},"properties":{"name":"Aspen Vista"}},{"type":"Feature","geometry":{"type":"Point","coordinates":[-105.83331,35.79831]},"properties":{"name":"Aspen Ranch"}},{"type":"Feature","geometry":{"type":"Point","coordinates":[-105.62061,35.83997]},"properties":{"name":"Iron Gate"}}]}