{"type":"FeatureCollection","features":[{"type":"Feature","geometry":{"type":"Polygon","coordinates":[[[-105.76148390446794,35.7839412599394],[-105.75910618404875,35.785236590270614],[-105.75755025384072,35.78685127060267],[-105.75382409303458,35.78715420086202],[-105.75254520269036,35.786476990833485],[-105.74579759099808,35.784337190898654],[-105.74461806067289,35.783623230858865],[-105.74431964050672,35.782471010702615],[-105.7398530593352,35.78046098065629],[-105.7320209174943,35.77940903094701],[-105.72977039694895,35.7789178310021],[-105.7258289159379,35.7774089810009],[-105.721170194889,35.7773198412545],[-105.71765839395414,35.775582741194214],[-105.71540782340635,35.7750642312451],[-105.712118622532,35.77345186119079],[-105.70935147190083,35.77330595132735],[-105.70713792204506,35.7807122325695],[-105.69732424941786,35.775693562376006],[-105.68585716613543,35.76736559177807],[-105.66909381326171,35.7775222142688],[-105.66609995309666,35.78337230532196],[-105.66374535362816,35.79562924730386],[-105.66500731448873,35.802321238239685],[-105.66757561529909,35.80504786850305],[-105.66959651581887,35.805830028504936],[-105.66810211593985,35.81109473938351],[-105.68865081103382,35.816839039068704],[-105.67884441896447,35.81827437984782],[-105.66362228531396,35.81544732029615],[-105.66297706571302,35.82172608127867],[-105.67080248802242,35.82817416179992],[-105.66433889728704,35.83637867340624],[-105.66431759779742,35.84232060430173],[-105.6551429157436,35.84231556482846],[-105.65509691604547,35.845915045372855],[-105.65182623531066,35.84588418555622],[-105.65187943500982,35.8422775050103],[-105.64827474419752,35.84221556520817],[-105.64908792406058,35.83853584460746],[-105.64880174377865,35.836021904245385],[-105.64932480368843,35.833629823855155],[-105.64597543216718,35.82472198270607],[-105.63227329017818,35.83717488536873],[-105.63227201021316,35.83758208543012],[-105.63009758972882,35.837611635559526],[-105.63009506980632,35.83851269569537],[-105.62792064932208,35.83854368582495],[-105.62791884940013,35.839448525961366],[-105.62452922864466,35.839490156162405],[-105.6245310285664,35.8385822460255],[-105.62343715832247,35.83859468609027],[-105.62340025862792,35.842214416637596],[-105.61888760762196,35.842268646905076],[-105.61892289637588,35.827792624722036],[-105.61993938535763,35.81339254249331],[-105.61842178501777,35.81339256258038],[-105.61844405310715,35.79121919923556],[-105.59743557841028,35.791316320453795],[-105.58837485588886,35.78561779011266],[-105.57310586181403,35.778036959842055],[-105.57160276163006,35.779811300196044],[-105.57072105147402,35.780293350319326],[-105.5673075607749,35.78105788063013],[-105.56587534052912,35.78193020084388],[-105.56366280003799,35.781985690978864],[-105.56182934966742,35.782454111154564],[-105.5588738289898,35.7822785712972],[-105.5573163285364,35.78106863120353],[-105.55526606803565,35.78059127124875],[-105.55269609756004,35.78175720157196],[-105.54761547639659,35.78147394181988],[-105.53864122451533,35.78299322256301],[-105.52902736223487,35.78154832289465],[-105.52618983167798,35.782471433196505],[-105.52634901017811,35.76463671049084],[-105.50607702561013,35.76439537161278],[-105.50473963496584,35.76039276108358],[-105.4956431628739,35.75979963151345],[-105.47834995909895,35.76103323268786],[-105.47337891789317,35.75998657281328],[-105.4711979873959,35.75989718292425],[-105.47121436732891,35.7590746027988],[-105.46904010683333,35.75898755290978],[-105.46906242676779,35.75816695278423],[-105.46797628652027,35.75812397283969],[-105.46802397639006,35.75648438258868],[-105.46586051589733,35.75640220269974],[-105.46607810541248,35.750189541746266],[-105.46386648432308,35.74328327082617],[-105.45782777242736,35.73699055021702],[-105.45247230121251,35.736845710500404],[-105.45251615106474,35.73500806021939],[-105.44452933921872,35.734394610581695],[-105.44387225899946,35.733558530492395],[-105.44255661870825,35.73360850057493],[-105.4407196881038,35.73137023034028],[-105.44101576813162,35.73091832025485],[-105.44066860798571,35.7301261601545],[-105.43871310740032,35.72842026000723],[-105.43857725732042,35.72784371992756],[-105.4377595471325,35.727793809966606],[-105.43776028705705,35.726911049832644],[-105.42438198399195,35.72620894048831],[-105.41550293225103,35.729171651443636],[-105.41105756125236,35.72917305169705],[-105.40399109957258,35.72810097193693],[-105.39141444686318,35.729468282860786],[-105.39850625928501,35.739128373922895],[-105.40035843979277,35.7401951239792],[-105.40685386189624,35.74769900474731],[-105.40596076302977,35.76323790715486],[-105.40520500495757,35.7876280808952],[-105.42225420878077,35.787531039905986],[-105.43061951069225,35.78790173948387],[-105.43057434100082,35.79160173004685],[-105.43484222196435,35.79165630981104],[-105.43459798249039,35.79839752084578],[-105.438899883465,35.79849224061401],[-105.43883563375024,35.801968321143896],[-105.44335947476179,35.8019139908768],[-105.44327506504416,35.80540807141047],[-105.44781006605972,35.80537210114546],[-105.44767525633084,35.808865291681826],[-105.45216309733894,35.8088665814251],[-105.45183604787337,35.81590982250942],[-105.4823871246998,35.815517680700076],[-105.48221234494343,35.818792891205206],[-105.48332486519307,35.81879096114117],[-105.48305119647354,35.83431534350328],[-105.49446429902021,35.83413803282183],[-105.49452100933686,35.83765082334925],[-105.4990106503371,35.837564463078614],[-105.49905962065515,35.84111217361169],[-105.50058241137333,35.845459554180856],[-105.5175851555497,35.849624933833525],[-105.51728395708005,35.868055076632125],[-105.49970266313187,35.86802854763866],[-105.50015625397386,35.87655781889979],[-105.48305290014642,35.876701299904845],[-105.48311771769372,35.96318018294148],[-105.45676196219627,35.96803217519512],[-105.46074998351415,35.972854705691375],[-105.45740995277878,35.973029175910675],[-105.45169351171482,35.97555294662136],[-105.45713317361437,35.98328966747251],[-105.4831417894529,35.98322672595897],[-105.48316416113569,36.002373348839605],[-105.5212939796943,36.0023187566232],[-105.52130055224305,36.031319740981836],[-105.5302264642471,36.03131964046391],[-105.53023146552421,36.04582004264149],[-105.53915899752845,36.04582012212306],[-105.5391656288076,36.06032051429937],[-105.58110066821826,36.06032041186134],[-105.58304508887748,36.06284923212744],[-105.58613690963016,36.06351934204806],[-105.58962205052573,36.06480953203877],[-105.59228924128115,36.06659052215058],[-105.59716258274683,36.07081278249982],[-105.59838871307544,36.07141974251944],[-105.60343753416166,36.0708985221475],[-105.60623036485114,36.071614692092226],[-105.60779266516094,36.0711559719326],[-105.60999060564407,36.07104562178814],[-105.61347799617761,36.06823288116376],[-105.61553789657643,36.06751907093698],[-105.61619425661102,36.066244450707806],[-105.61752770692051,36.066363800648084],[-105.61946999721975,36.06482107030396],[-105.62181060771795,36.06452043012275],[-105.62273515783323,36.06347879991287],[-105.62558831846673,36.06340982973657],[-105.62884084906216,36.06189615932056],[-105.629501029143,36.061135359168176],[-105.62988912910085,36.059672748926516],[-105.63145481933013,36.05829408862894],[-105.63189179910334,36.05461331805212],[-105.63244720910829,36.05325799781677],[-105.63102153861527,36.05129104760499],[-105.63091443851185,36.05039002747623],[-105.62996456823025,36.049610647414696],[-105.63007736815209,36.04843798723243],[-105.62959471798534,36.04777335716095],[-105.63003724794443,36.04618423689711],[-105.62980133786071,36.04583385685828],[-105.63026212790335,36.04514622672849],[-105.62948463760151,36.04369875655677],[-105.63071342771585,36.041871086211444],[-105.63227932795166,36.04056453592467],[-105.63306450797235,36.038802295614964],[-105.63387465815195,36.038779975564545],[-105.64017914980083,36.04146022559972],[-105.64222701019675,36.040746015373664],[-105.64520414088707,36.04100951524011],[-105.65144140191283,36.036792384245786],[-105.65286946219159,36.03632479409278],[-105.65793695327108,36.03569300370361],[-105.66002754366205,36.034815983450734],[-105.66323846406281,36.03120091272268],[-105.68078396674811,36.01707315958732],[-105.69217822740693,35.99555354570217],[-105.70014433972054,36.00159381614486],[-105.71087775269936,36.00815555650443],[-105.71926379499008,36.012866026722605],[-105.72593931661953,36.01441178656619],[-105.74070406990722,36.0142427856831],[-105.74328702791964,35.985065891166855],[-105.73749155626187,35.98094540088608],[-105.73998184614099,35.97322152958509],[-105.7427791763727,35.96873237875063],[-105.76785969222253,35.971504507711934],[-105.77892570526532,35.97799661804169],[-105.79726371977715,35.982717537683804],[-105.81271959335804,35.9841824870058],[-105.82126603542032,35.985932046771175],[-105.82129984161271,35.942447610267315],[-105.81964221067021,35.935909919385125],[-105.81969281017021,35.930067318507895],[-105.81845819957665,35.92643335803546],[-105.81824335864526,35.916328056535185],[-105.82687610074919,35.9183515363388],[-105.8242396908276,35.925979037632914],[-105.83000747270404,35.932710158306286],[-105.83228539353546,35.93639986872641],[-105.83916173537077,35.939832058841574],[-105.85114930834256,35.94321866865357],[-105.85714169044401,35.951939329609864],[-105.8668827124838,35.95041776881777],[-105.86792231162708,35.93799553690112],[-105.86761541123114,35.934256206359926],[-105.87081281189334,35.93367405608777],[-105.87500849285023,35.933914475880655],[-105.8749839262517,35.858391084583765],[-105.87084193532586,35.85836455481872],[-105.86250901272001,35.849769424011704],[-105.85589187119584,35.84921271430965],[-105.85289063070468,35.851262644789784],[-105.84457818906729,35.853755705642456],[-105.83924785771445,35.85187340566753],[-105.83032551572424,35.85187966618265],[-105.83031797603728,35.85549930672568],[-105.82585592504186,35.85550236698331],[-105.8258475253548,35.8591221975264],[-105.82138460435911,35.859125277784116],[-105.8214681715476,35.82654515289315],[-105.8212191203467,35.813335140925176],[-105.81955041993409,35.812870390951346],[-105.8163697993793,35.81465919140267],[-105.8144062589985,35.81532167161502],[-105.81244943858252,35.81556032176338],[-105.81097600796004,35.812171241339286],[-105.81035352742083,35.8075502206813],[-105.80951341714793,35.806564120581555],[-105.80744050656317,35.80515354048884],[-105.80736708648669,35.804459800388884],[-105.80799750643422,35.802228610017586],[-105.80373611547934,35.802185060255866],[-105.79633753406786,35.80495717109726],[-105.79381468351005,35.80501894125148],[-105.79241469314988,35.80446919124931],[-105.78951356229626,35.8020900210585],[-105.78828101188839,35.80055637089889],[-105.78615711132572,35.79953344086719],[-105.78460640087039,35.79827232076676],[-105.78285070041541,35.7975444507582],[-105.78041977990594,35.797929920955674],[-105.7760967786818,35.794937540754105],[-105.7739527981302,35.794094850750554],[-105.77679599856077,35.79173232023223],[-105.77916500899963,35.79068914993947],[-105.78072004920251,35.78902009959938],[-105.78139853918917,35.7871132992738],[-105.78198587903483,35.78380959874349],[-105.78196285882639,35.78145654839112],[-105.78155446854848,35.77929534808959],[-105.7819881885672,35.77839091792875],[-105.7842314989469,35.776987827589174],[-105.78540082908036,35.77551056730001],[-105.78396799841877,35.7715528467871],[-105.78540768846153,35.76832469621917],[-105.79211223899924,35.757208934163394],[-105.80199168064897,35.75076904262906],[-105.80214926061255,35.7499385124951],[-105.80488835109631,35.748459612115845],[-105.80789151153395,35.74576171153816],[-105.80871919170342,35.74558484146416],[-105.80792852110339,35.74066740076991],[-105.80907852117063,35.73846877037341],[-105.8092727410788,35.73689867012614],[-105.8126759616273,35.734450409563145],[-105.81396880144005,35.72892384865791],[-105.81594685168467,35.72663839820096],[-105.81491435132547,35.72513971803456],[-105.81595991142468,35.72358186774037],[-105.8122451403167,35.72033418746424],[-105.81169136009113,35.71914779731737],[-105.8116251099834,35.71806631715844],[-105.81226891996157,35.716141556832],[-105.81542843045996,35.713739936290004],[-105.81608713047481,35.71220273602107],[-105.81669755035189,35.7091872255324],[-105.81178328920427,35.7085893657232],[-105.80355461742744,35.709275736296746],[-105.80083750674609,35.70840126632037],[-105.79808999598593,35.706688436219444],[-105.79536041538384,35.7067696263876],[-105.79281214534016,35.71288132745339],[-105.79207908524282,35.71365252761136],[-105.79188920527957,35.71457341776087],[-105.78983569494176,35.71597539808926],[-105.78778446472144,35.71873875862254],[-105.78578481428788,35.71888707875915],[-105.78471873410557,35.71953417891751],[-105.78304586399354,35.72257448947088],[-105.78297500403514,35.72324213957547],[-105.78218400390321,35.72376119969882],[-105.78107654383493,35.72584209007541],[-105.78000489360326,35.72593019014993],[-105.77724608313316,35.72762505056281],[-105.77509531289695,35.73046096111279],[-105.77314255279562,35.73435044181001],[-105.77324486294182,35.73578334201985],[-105.77221110295909,35.73866610251291],[-105.77033751259769,35.73932728271965],[-105.76983635265216,35.74125992303922],[-105.76875045258889,35.74334056341454],[-105.76768703243506,35.74431208362162],[-105.7652646319902,35.74542748392815],[-105.76445481188671,35.74632522410967],[-105.76402373189241,35.74750906431249],[-105.76200972163245,35.74971274475948],[-105.7589113811279,35.751887205264175],[-105.75736597101202,35.75454769575307],[-105.75422630052773,35.757064906311726],[-105.75388602067802,35.759690736726434],[-105.75285962057136,35.76111269699927],[-105.75438867113837,35.763726807305034],[-105.75289794133661,35.76988514831718],[-105.75394902167348,35.77106868843502],[-105.75760168270757,35.7735972786061],[-105.75858917295406,35.77389759859468],[-105.76058332362487,35.776508678873135],[-105.76370228451206,35.77871587902629],[-105.76232722447747,35.781871229579686],[-105.76210666453504,35.783107829778345],[-105.76148390446794,35.7839412599394]]]},"properties":{"wildernessname":"Pecos Wilderness","gis_acres":221836.01}}]}